{
    "links": {
        "self": "http://www.neowsapp.com/rest/v1/neo/3566698?api_key=iIulBulltgU6a56xZRHN4H3l9WmuAYTsLGpBGhQ2"
    },
    "id": "3566698",
    "neo_reference_id": "3566698",
    "name": "(2011 KX15)",
    "designation": "2011 KX15",
    "nasa_jpl_url": "http://ssd.jpl.nasa.gov/sbdb.cgi?sstr=3566698",
    "absolute_magnitude_h": 26.6,
    "estimated_diameter": {
        "kilometers": {
            "estimated_diameter_min": 0.0127219879,
            "estimated_diameter_max": 0.0284472297
        },
        "meters": {
            "estimated_diameter_min": 12.7219878539,
            "estimated_diameter_max": 28.4472296503
        },
        "miles": {
            "estimated_diameter_min": 0.0079050743,
            "estimated_diameter_max": 0.0176762835
        },
        "feet": {
            "estimated_diameter_min": 41.7388066307,
            "estimated_diameter_max": 93.330808926
        }
    },
    "is_potentially_hazardous_asteroid": false,
    "close_approach_data": [
        {
            "close_approach_date": "2011-06-01",
            "close_approach_date_full": "2011-Jun-01 19:28",
            "epoch_date_close_approach": 1306956480000,
            "relative_velocity": {
                "kilometers_per_second": "4.6801502269",
                "kilometers_per_hour": "16848.5408169863",
                "miles_per_hour": "10469.0280426435"
            },
            "miss_distance": {
                "astronomical": "0.0383709348",
                "lunar": "14.9262936372",
                "kilometers": "5740210.115988876",
                "miles": "3566801.1713074488"
            },
            "orbiting_body": "Earth"
        },
        {
            "close_approach_date": "2022-06-21",
            "close_approach_date_full": "2022-Jun-21 13:55",
            "epoch_date_close_approach": 1655819700000,
            "relative_velocity": {
                "kilometers_per_second": "7.1798600916",
                "kilometers_per_hour": "25847.4963296431",
                "miles_per_hour": "16060.6290388274"
            },
            "miss_distance": {
                "astronomical": "0.0891886564",
                "lunar": "34.6943873396",
                "kilometers": "13342433.025601868",
                "miles": "8290603.4417190584"
            },
            "orbiting_body": "Mars"
        }
    ],
    "orbital_data": {
        "orbit_id": "6",
        "orbit_determination_date": "2017-04-06 08:53:24",
        "first_observation_date": "2011-05-28",
        "last_observation_date": "2011-06-02",
        "data_arc_in_days": 5,
        "observations_used": 26,
        "orbit_uncertainty": "8",
        "minimum_orbit_intersection": ".0381794",
        "jupiter_tisserand_invariant": "4.535",
        "epoch_osculation": "2455710.5",
        "eccentricity": ".290311715989145",
        "semi_major_axis": "1.478427098207095",
        "inclination": "5.452760593885283",
        "ascending_node_longitude": "76.83010816908441",
        "orbital_period": "656.5960989550229",
        "perihelion_distance": "1.049222390361741",
        "perihelion_argument": "167.0724388297416",
        "aphelion_distance": "1.907631806052449",
        "perihelion_time": "2455707.540204458472",
        "mean_anomaly": "1.622803420010982",
        "mean_motion": ".548282270596707",
        "equinox": "J2000",
        "orbit_class": {
            "orbit_class_type": "AMO",
            "orbit_class_description": "Near-Earth asteroid orbits similar to that of 1221 Amor",
            "orbit_class_range": "1.017 AU < q (perihelion) < 1.3 AU"
        }
    },
    "is_sentry_object": false
}